0 DELTA 1 DEB
1 21347U 75052BR  13286.52636653  .00003179  00000-0  59020-2 0  7729
2 21347 099.3661 148.5132 0458262 096.9375 329.9028 13.05947873 56374
0 DELTA 1 DEB
1 21347U 75052BR  13287.59687802  .00003773  00000-0  69927-2 0  7737
2 21347 099.3655 149.4484 0458306 094.4423 322.8321 13.05955012 56511
0 DELTA 1 DEB
1 21347U 75052BR  13289.14146737  .00003774  00000-0  69910-2 0  7741
2 21347 099.3649 150.7981 0458380 090.8404 024.6569 13.05966752 56718
0 DELTA 1 DEB
1 21347U 75052BR  13290.58030786  .00003901  00000-0  72217-2 0  7754
2 21347 099.3638 152.0554 0458487 087.4835 309.3628 13.05975352 56901
0 DELTA 1 DEB
1 21347U 75052BR  13292.20621228  .00003307  00000-0  61289-2 0  7760
2 21347 099.3632 153.4765 0458663 083.7107 033.5803 13.05985098 57114
0 DELTA 1 DEB
1 21347U 75052BR  13293.49916479  .00003996  00000-0  73895-2 0  7778
2 21347 099.3628 154.6060 0458794 080.6993 352.4774 13.05992813 57285
0 DELTA 1 DEB
1 21347U 75052BR  13294.56947928  .00004680  00000-0  86399-2 0  7785
2 21347 099.3626 155.5410 0458908 078.2114 344.6507 13.06000229 57422
0 DELTA 1 DEB
1 21347U 75052BR  13296.11989414  .00004870  00000-0  89833-2 0  7792
2 21347 099.3629 156.8957 0459067 074.6094 074.1067 13.06012911 57628
